     2.100          NAVIGATION                              RINEX VERSION / TYPE
fic2rin                                 06/09/2014 00:17:59 PGM / RUN BY / DATE
                                                            END OF HEADER
15 14  6  8 18  0  0.0 -.184152275324D-03 -.216004991671D-11  .000000000000D+00
     .690000000000D+02  .861875000000D+02  .516914388702D-08 -.177019180645D+00
     .463984906673D-05  .629000039771D-02  .526756048203D-05  .515370486069D+04
     .648000000000D+05  .122934579849D-06  .107065315654D+00 -.167638063431D-07
     .936974130905D+00  .264125000000D+03  .273195142691D+00 -.862607359630D-08
     .291797868838D-09  .100000000000D+01  .179600000000D+04  .000000000000D+00
     .240000000000D+01  .000000000000D+00 -.102445483208D-07  .690000000000D+02
     .576060000000D+05  .400000000000D+01
16 14  6  8 18  0  0.0 -.214197207242D-03  .204636307899D-11  .000000000000D+00
     .740000000000D+02 -.517812500000D+02  .388659046352D-08  .144946760522D+01
    -.234134495258D-05  .773381988984D-02  .103227794170D-04  .515360623169D+04
     .648000000000D+05  .763684511185D-07  .229785112867D+01  .134110450745D-06
     .988318103827D+00  .195406250000D+03  .217000074901D+00 -.773103631441D-08
    -.492877673191D-10  .100000000000D+01  .179600000000D+04  .000000000000D+00
     .240000000000D+01  .000000000000D+00 -.102445483208D-07  .740000000000D+02
     .576060000000D+05  .400000000000D+01
17 14  6  8 18  0  0.0 -.997367314994D-04 -.295585778076D-11  .000000000000D+00
     .440000000000D+02  .114375000000D+02  .459340561950D-08  .520325928932D+00
     .707805156708D-06  .930388446432D-02  .703334808350D-05  .515359969139D+04
     .648000000000D+05 -.838190317154D-07 -.295399250686D+01  .949949026108D-07
     .969067395124D+00  .250843750000D+03 -.209908233093D+01 -.822891419588D-08
     .181436128972D-09  .100000000000D+01  .179600000000D+04  .000000000000D+00
     .340000000000D+01  .000000000000D+00 -.102445483208D-07  .440000000000D+02
     .576060000000D+05  .400000000000D+01
18 14  6  8 18  0  0.0  .324251595885D-03  .238742359215D-11  .000000000000D+00
     .840000000000D+02  .288437500000D+02  .495449208877D-08  .209982833138D+01
     .141374766827D-05  .153615889139D-01  .117775052786D-04  .515370509529D+04
     .648000000000D+05  .558793544769D-08 -.911892905143D+00 -.374391674995D-06
     .925702404158D+00  .129718750000D+03 -.203268679912D+01 -.807676500111D-08
    -.113219001740D-09  .100000000000D+01  .179600000000D+04  .000000000000D+00
     .240000000000D+01  .000000000000D+00 -.111758708954D-07  .840000000000D+02
     .576060000000D+05  .400000000000D+01
19 14  6  8 18  0  0.0 -.461576506495D-03 -.216004991671D-11  .000000000000D+00
     .290000000000D+02  .113437500000D+02  .469305262734D-08 -.273246170737D+00
     .521540641785D-06  .104058808647D-01  .670738518238D-05  .515361605072D+04
     .648000000000D+05  .726431608200D-07 -.290323896913D+01  .117346644402D-06
     .966163957704D+00  .250562500000D+03  .441279172272D+00 -.824855787126D-08
     .201794119821D-09  .100000000000D+01  .179600000000D+04  .000000000000D+00
     .240000000000D+01  .000000000000D+00 -.149011611938D-07  .290000000000D+02
     .576060000000D+05  .400000000000D+01
20 14  6  8 18  0  0.0  .197913963348D-03  .397903932026D-11  .000000000000D+00
     .107000000000D+03  .109687500000D+02  .495306345783D-08  .261614286433D+01
     .646337866783D-06  .575221772306D-02  .105369836092D-04  .515378497314D+04
     .648000000000D+05  .912696123123D-07 -.964953621209D+00  .409781932831D-07
     .926671498147D+00  .156531250000D+03  .132929953212D+01 -.806176437627D-08
    -.140362989539D-09  .100000000000D+01  .179600000000D+04  .000000000000D+00
     .340000000000D+01  .000000000000D+00 -.838190317154D-08  .107000000000D+03
     .576060000000D+05  .400000000000D+01
21 14  6  8 18  0  0.0 -.365844462067D-03 -.216004991671D-11  .000000000000D+00
     .690000000000D+02 -.405312500000D+02  .524414701120D-08  .305714872254D+01
    -.218860805035D-05  .215197057696D-01  .616908073425D-05  .515374315643D+04
     .648000000000D+05  .186264514923D-06 -.195732101060D+01 -.223517417908D-06
     .932068495526D+00  .240562500000D+03 -.201845200495D+01 -.808783689087D-08
    -.329299430929D-09  .100000000000D+01  .179600000000D+04  .000000000000D+00
     .340000000000D+01  .000000000000D+00 -.111758708954D-07  .690000000000D+02
     .576060000000D+05  .400000000000D+01
22 14  6  8 18  0  0.0  .240559689701D-03  .306954461848D-11  .000000000000D+00
     .170000000000D+02  .287187500000D+02  .512342769704D-08  .153921153486D+01
     .150129199028D-05  .728976470418D-02  .114925205708D-04  .515373213387D+04
     .648000000000D+05 -.145286321640D-06 -.910027607057D+00 -.726431608200D-07
     .923480503698D+00  .137218750000D+03 -.205388541104D+01 -.833463288520D-08
    -.191436545529D-09  .100000000000D+01  .179600000000D+04  .000000000000D+00
     .240000000000D+01  .000000000000D+00 -.172294676304D-07  .170000000000D+02
     .576060000000D+05  .400000000000D+01
23 14  6  8 18  0  0.0 -.271094031632D-04 -.306954461848D-11  .000000000000D+00
     .250000000000D+02  .862500000000D+02  .480984320642D-08 -.618527121120D+00
     .463426113129D-05  .943954149261D-02  .528059899807D-05  .515377723122D+04
     .648000000000D+05  .162050127983D-06  .153900630648D+00  .763684511185D-07
     .952044956425D+00  .269687500000D+03 -.277928306612D+01 -.840285001243D-08
     .312513017422D-09  .100000000000D+01  .179600000000D+04  .000000000000D+00
     .240000000000D+01  .000000000000D+00 -.200234353542D-07  .250000000000D+02
     .576060000000D+05  .400000000000D+01
24 14  6  8 18  0  0.0 -.297725200653D-04 -.682121026330D-12  .000000000000D+00
     .110000000000D+02 -.437500000000D+02  .491877631535D-08 -.144979295235D+01
    -.234134495258D-05  .208254472818D-02  .396743416786D-05  .515372811890D+04
     .648000000000D+05  .260770320892D-07  .118084718291D+01  .298023223877D-07
     .956569728397D+00  .299625000000D+03  .353165900354D+00 -.846463830045D-08
    -.125719522437D-09  .100000000000D+01  .179600000000D+04  .000000000000D+00
     .240000000000D+01  .000000000000D+00  .279396772385D-08  .110000000000D+02
     .576060000000D+05  .400000000000D+01
25 14  6  8 18  0  0.0  .247103162110D-04  .227373675443D-12  .000000000000D+00
     .290000000000D+02 -.553750000000D+02  .402695345306D-08  .281137242728D+01
    -.293925404549D-05  .364827329759D-02  .107493251562D-04  .515360732079D+04
     .648000000000D+05 -.651925802231D-07  .223672659749D+01 -.260770320892D-07
     .976384005810D+00  .178281250000D+03  .694407827548D+00 -.771782147824D-08
     .335728270144D-10  .100000000000D+01  .179600000000D+04  .000000000000D+00
     .240000000000D+01  .000000000000D+00  .512227416039D-08  .290000000000D+02
     .576060000000D+05  .400000000000D+01
26 14  6  8 18  0  0.0  .530318357050D-04 -.121644916362D-10  .000000000000D+00
     .130000000000D+02  .728750000000D+02  .449018703431D-08 -.724567437371D+00
     .420399010181D-05  .213192197261D-01  .540912151337D-05  .515369271660D+04
     .648000000000D+05 -.126659870148D-06  .242572605608D+00  .286847352982D-06
     .975196764402D+00  .290812500000D+03  .128566040201D+01 -.848642492223D-08
     .301798285396D-09  .100000000000D+01  .179600000000D+04  .000000000000D+00
     .240000000000D+01  .000000000000D+00 -.605359673500D-08  .130000000000D+02
     .576060000000D+05  .400000000000D+01
28 14  6  8 18  0  0.0  .360833015293D-03  .272848410532D-11  .000000000000D+00
     .460000000000D+02 -.527187500000D+02  .385373195198D-08  .134905789242D+01
    -.296533107758D-05  .191354167182D-01  .988319516182D-05  .515367999649D+04
     .648000000000D+05 -.322237610817D-06  .230361279349D+01 -.396743416786D-06
     .986849214117D+00  .210031250000D+03 -.171469291212D+01 -.782461164077D-08
     .657170230921D-10  .100000000000D+01  .179600000000D+04  .000000000000D+00
     .240000000000D+01  .000000000000D+00 -.107102096081D-07  .460000000000D+02
     .576060000000D+05  .400000000000D+01
29 14  6  8 18  0  0.0  .538332387805D-03  .272848410532D-11  .000000000000D+00
     .380000000000D+02  .113125000000D+02  .448804408791D-08 -.304580260494D+01
     .517815351486D-06  .151811714750D-02  .729598104954D-05  .515369158936D+04
     .648000000000D+05 -.186264514923D-08 -.294492374602D+01  .111758708954D-07
     .969804334255D+00  .243812500000D+03 -.847256908291D+00 -.798318967475D-08
     .276440086268D-09  .100000000000D+01  .179600000000D+04  .000000000000D+00
     .240000000000D+01  .000000000000D+00 -.977888703346D-08  .380000000000D+02
     .576060000000D+05  .400000000000D+01
30 14  6  8 18  0  0.0 -.233068130910D-04 -.636646291241D-11  .000000000000D+00
     .440000000000D+02 -.435000000000D+02  .479519973932D-08 -.200652194458D+01
    -.228360295296D-05  .771327177063D-03  .462681055069D-05  .515369544411D+04
     .648000000000D+05 -.465661287308D-07  .127005480094D+01 -.353902578354D-07
     .958756935755D+00  .294531250000D+03  .273694735506D+01 -.834463330176D-08
    -.145006040084D-09  .100000000000D+01  .179600000000D+04  .000000000000D+00
     .240000000000D+01  .000000000000D+00  .325962901115D-08  .440000000000D+02
     .576060000000D+05  .400000000000D+01
31 14  6  8 18  0  0.0  .334080774337D-03 -.113686837722D-12  .000000000000D+00
     .930000000000D+02 -.518750000000D+02  .444447084434D-08 -.235108314366D+01
    -.249221920967D-05  .795221119188D-02  .421702861786D-05  .515356179619D+04
     .648000000000D+05 -.115483999252D-06  .122193695590D+01  .135973095894D-06
     .978130452042D+00  .309937500000D+03 -.634323306775D+00 -.811712382507D-08
    -.192508018732D-09  .100000000000D+01  .179600000000D+04  .000000000000D+00
     .240000000000D+01  .000000000000D+00 -.130385160446D-07  .930000000000D+02
     .576060000000D+05  .400000000000D+01
